STARLINK-32374          
1 62145U 24224G   26068.26300344  .00035289  00000+0  12854-2 0  9994
2 62145  43.0000 160.6086 0002018 256.0897 103.9730 15.27589886 72418
BANDWAGON-2 OBJECT D    
1 62380U 24247D   26068.52261193  .00011259  00000+0  40119-3 0  9994
2 62380  44.9954 115.6710 0003488 351.1453   8.9368 15.29076102 67732
